[{"OBJECT_NAME":"STARLINK-6098","OBJECT_ID":"2023-083AG","EPOCH":"2026-03-09T22:00:01.999584","MEAN_MOTION":15.09631398,"ECCENTRICITY":0.00020082,"INCLINATION":43.0008,"RA_OF_ASC_NODE":67.7459,"ARG_OF_PERICENTER":259.638,"MEAN_ANOMALY":48.5969,"EPHEMERIS_TYPE":0,"CLASSIFICATION_TYPE":"U","NORAD_CAT_ID":56906,"ELEMENT_SET_NO":999,"REV_AT_EPOCH":572,"BSTAR":0.004417048,"MEAN_MOTION_DOT":0.00072804,"MEAN_MOTION_DDOT":0},{"OBJECT_NAME":"LEMUR-2-STELLA","OBJECT_ID":"2024-149BT","EPOCH":"2026-03-09T17:26:15.951264","MEAN_MOTION":15.09464064,"ECCENTRICITY":0.0001299,"INCLINATION":97.6764,"RA_OF_ASC_NODE":150.9122,"ARG_OF_PERICENTER":95.1117,"MEAN_ANOMALY":265.026,"EPHEMERIS_TYPE":0,"CLASSIFICATION_TYPE":"U","NORAD_CAT_ID":60533,"ELEMENT_SET_NO":999,"REV_AT_EPOCH":8548,"BSTAR":0.00085776432,"MEAN_MOTION_DOT":0.00013685,"MEAN_MOTION_DDOT":0}]
